KUWAITSAT-1             
1 55103U 23001CY  26068.75242125  .00023651  00000+0  49716-3 0  9996
2 55103  97.3347 138.2650 0010253  82.1100 278.1312 15.45271031177218
QUBE                    
1 60476U 24149J   26068.74807115  .00025003  00000+0  57857-3 0  9992
2 60476  97.3809 153.6100 0001869 197.3364 162.7820 15.42458509 87110
