[{"OBJECT_NAME":"KUWAITSAT-1","OBJECT_ID":"2023-001CY","EPOCH":"2026-03-09T18:03:29.196000","MEAN_MOTION":15.45271031,"ECCENTRICITY":0.00102534,"INCLINATION":97.3347,"RA_OF_ASC_NODE":138.265,"ARG_OF_PERICENTER":82.11,"MEAN_ANOMALY":278.1312,"EPHEMERIS_TYPE":0,"CLASSIFICATION_TYPE":"U","NORAD_CAT_ID":55103,"ELEMENT_SET_NO":999,"REV_AT_EPOCH":17721,"BSTAR":0.00049716234,"MEAN_MOTION_DOT":0.00023651,"MEAN_MOTION_DDOT":0},{"OBJECT_NAME":"QUBE","OBJECT_ID":"2024-149J","EPOCH":"2026-03-09T17:57:13.347360","MEAN_MOTION":15.42458509,"ECCENTRICITY":0.00018692,"INCLINATION":97.3809,"RA_OF_ASC_NODE":153.61,"ARG_OF_PERICENTER":197.3364,"MEAN_ANOMALY":162.782,"EPHEMERIS_TYPE":0,"CLASSIFICATION_TYPE":"U","NORAD_CAT_ID":60476,"ELEMENT_SET_NO":999,"REV_AT_EPOCH":8711,"BSTAR":0.00057856809,"MEAN_MOTION_DOT":0.00025003,"MEAN_MOTION_DDOT":0}]
